{
    "links": {
        "self": "http://www.neowsapp.com/rest/v1/neo/3763938?api_key=iIulBulltgU6a56xZRHN4H3l9WmuAYTsLGpBGhQ2"
    },
    "id": "3763938",
    "neo_reference_id": "3763938",
    "name": "(2016 WO)",
    "designation": "2016 WO",
    "nasa_jpl_url": "http://ssd.jpl.nasa.gov/sbdb.cgi?sstr=3763938",
    "absolute_magnitude_h": 25.6,
    "estimated_diameter": {
        "kilometers": {
            "estimated_diameter_min": 0.0201629919,
            "estimated_diameter_max": 0.0450858206
        },
        "meters": {
            "estimated_diameter_min": 20.1629919443,
            "estimated_diameter_max": 45.0858206172
        },
        "miles": {
            "estimated_diameter_min": 0.0125286985,
            "estimated_diameter_max": 0.0280150214
        },
        "feet": {
            "estimated_diameter_min": 66.1515504905,
            "estimated_diameter_max": 147.9193637137
        }
    },
    "is_potentially_hazardous_asteroid": false,
    "close_approach_data": [
        {
            "close_approach_date": "1982-12-04",
            "close_approach_date_full": "1982-Dec-04 19:25",
            "epoch_date_close_approach": 407877900000,
            "relative_velocity": {
                "kilometers_per_second": "25.5712569406",
                "kilometers_per_hour": "92056.5249860552",
                "miles_per_hour": "57200.344650363"
            },
            "miss_distance": {
                "astronomical": "0.3870056574",
                "lunar": "150.5452007286",
                "kilometers": "57895222.024989738",
                "miles": "35974422.8101768644"
            },
            "orbiting_body": "Earth"
        },
        {
            "close_approach_date": "2016-11-12",
            "close_approach_date_full": "2016-Nov-12 17:47",
            "epoch_date_close_approach": 1478972820000,
            "relative_velocity": {
                "kilometers_per_second": "14.9119355496",
                "kilometers_per_hour": "53682.9679786338",
                "miles_per_hour": "33356.5086309461"
            },
            "miss_distance": {
                "astronomical": "0.032563425",
                "lunar": "12.667172325",
                "kilometers": "4871419.01990475",
                "miles": "3026959.41699555"
            },
            "orbiting_body": "Earth"
        }
    ],
    "orbital_data": {
        "orbit_id": "4",
        "orbit_determination_date": "2017-04-06 08:22:09",
        "first_observation_date": "2016-11-18",
        "last_observation_date": "2016-12-01",
        "data_arc_in_days": 13,
        "observations_used": 29,
        "orbit_uncertainty": "8",
        "minimum_orbit_intersection": ".0140895",
        "jupiter_tisserand_invariant": "3.326",
        "epoch_osculation": "2457712.5",
        "eccentricity": ".6258077593647299",
        "semi_major_axis": "2.263021425908261",
        "inclination": "3.633983661417199",
        "ascending_node_longitude": "60.41809419244901",
        "orbital_period": "1243.458872651985",
        "perihelion_distance": ".8468050579662362",
        "perihelion_argument": "295.4111233423754",
        "aphelion_distance": "3.679237793850286",
        "perihelion_time": "2457668.279080867788",
        "mean_anomaly": "12.8026195620318",
        "mean_motion": ".2895150036061993",
        "equinox": "J2000",
        "orbit_class": {
            "orbit_class_type": "APO",
            "orbit_class_description": "Near-Earth asteroid orbits which cross the Earth’s orbit similar to that of 1862 Apollo",
            "orbit_class_range": "a (semi-major axis) > 1.0 AU; q (perihelion) < 1.017 AU"
        }
    },
    "is_sentry_object": false
}